FLOCK 1C-8              
1 40040U 14033AG  17345.70463957  .00000290  00000-0  34991-4 0  9991
2 40040  97.9260 261.2520 0013972  57.9919 302.2660 14.91208398189083
